CCSDS_OPM_VERS = 2.0
CREATION_DATE = 2019-11-27T20:27:43
ORIGINATOR = N/A

META_START
OBJECT_NAME          = ISS (ZARYA)
OBJECT_ID            = 1998-067A
CENTER_NAME          = EARTH
REF_FRAME            = TEME
TIME_SYSTEM          = UTC
META_STOP

COMMENT  State Vector
EPOCH                = 2008-09-20T12:25:40.104192
X                    =  4086.147180 [km]
Y                    =  -994.936814 [km]
Z                    =  5250.678791 [km]
X_DOT                =     2.511071 [km/s]
Y_DOT                =     7.255240 [km/s]
Z_DOT                =    -0.583165 [km/s]

COMMENT  Keplerian elements
SEMI_MAJOR_AXIS      =  6730.963463 [km]
ECCENTRICITY         =     0.000670
INCLINATION          =    51.641600 [deg]
RA_OF_ASC_NODE       =   247.462700 [deg]
ARG_OF_PERICENTER    =   130.536000 [deg]
TRUE_ANOMALY         =   324.984745 [deg]
GM                   = 398600.9368 [km**3/s**2]

COV_REF_FRAME        = RSW
CX_X                 =  5.8010032236063355e-05
CY_X                 = -1.8473510518663645e-04
CY_Y                 =  9.9866247749849429e-04
CZ_X                 =  1.1118476595468817e-04
CZ_Y                 = -4.8791014065614649e-04
CZ_Z                 =  2.7789761647228466e-04
CX_DOT_X             =  1.5826506528751164e-07
CX_DOT_Y             = -7.5862973734692565e-07
CX_DOT_Z             =  3.5436109526435285e-07
CX_DOT_X_DOT         =  6.4862152678401594e-10
CY_DOT_X             =  5.2608037205399288e-08
CY_DOT_Y             = -4.7600374122170197e-07
CY_DOT_Z             =  2.3662322692294305e-07
CY_DOT_X_DOT         =  2.7496720817295827e-10
CY_DOT_Y_DOT         =  3.4312488703079923e-10
CZ_DOT_X             =  7.3844964157943917e-08
CZ_DOT_Y             = -6.4270507701166057e-08
CZ_DOT_Z             =  5.0414636669024323e-08
CZ_DOT_X_DOT         =  1.5941650927025790e-10
CZ_DOT_Y_DOT         = -1.2830238447436662e-10
CZ_DOT_Z_DOT         =  2.3705169051094249e-10
